NORAD_CAT_ID,OBJECT_NAME,OBJECT_TYPE,EPOCH,MEAN_MOTION,ECCENTRICITY,INCLINATION,RA_OF_ASC_NODE,ARG_OF_PERICENTER,MEAN_ANOMALY,BSTAR,MEAN_MOTION_DOT,MEAN_MOTION_DDOT,TLE_LINE0,TLE_LINE1,TLE_LINE2,SEMIMAJOR_AXIS,PERIOD,APOGEE,PERIGEE,DECAYED
55278.0,STARLINK-5289,PAYLOAD,2023-04-23 14:35:14,14.99136625,0.0003183,69.9991,174.6202,268.8694,91.2101,-3.4281e-05,-5.11e-06,0.0,0 STARLINK-5289,1 55278U 23010K   23113.60780533 -.00000511  00000-0 -34281-4 0  9996,2 55278  69.9991 174.6202 0003183 268.8694  91.2101 14.99136625 15031,6947.7,96.055,571.776,567.353,0.0
55278.0,STARLINK-5289,PAYLOAD,2023-04-24 03:23:53,14.99151023,0.0002915,69.9998,173.2735,269.4453,90.6372,2.5931e-05,2.22e-06,0.0,0 STARLINK-5289,1 55278U 23010K   23114.14158598  .00000222  00000-0  25931-4 0  9995,2 55278  69.9998 173.2735 0002915 269.4453  90.6372 14.99151023 15410,6947.655,96.054,571.545,567.495,0.0
55278.0,STARLINK-5289,PAYLOAD,2023-04-25 09:49:29,14.99106523,0.000255,70.0004,170.0747,246.0708,114.0184,-0.00026367,-3.302e-05,0.0,0 STARLINK-5289,1 55278U 23010K   23115.40937362 -.00003302  00000-0 -26367-3 0  9996,2 55278  70.0004 170.0747 0002550 246.0708 114.0184 14.99106523 15303,6947.793,96.057,571.429,567.886,0.0
55278.0,STARLINK-5289,PAYLOAD,2023-04-25 21:02:04,14.99111636,0.0002108,70.001,168.8943,272.566,87.5258,-0.00020063,-2.535e-05,0.0,0 STARLINK-5289,1 55278U 23010K   23115.87644652 -.00002535  00000-0 -20063-3 0  9998,2 55278  70.0010 168.8943 0002108 272.5660  87.5258 14.99111636 15377,6947.777,96.057,571.106,568.177,0.0
55278.0,STARLINK-5289,PAYLOAD,2023-04-26 13:02:53,14.99129152,0.0003346,69.9994,167.2094,272.2905,87.7871,-4.7701e-05,-6.75e-06,0.0,0 STARLINK-5289,1 55278U 23010K   23116.54367546 -.00000675  00000-0 -47701-4 0  9999,2 55278  69.9994 167.2094 0003346 272.2905  87.7871 14.99129152 15778,6947.723,96.056,571.912,567.263,0.0
55278.0,STARLINK-5289,PAYLOAD,2023-04-26 21:03:17,14.99103062,0.0002732,69.9996,166.3665,259.2573,100.8279,0.00044538,5.332e-05,0.0,0 STARLINK-5289,1 55278U 23010K   23116.87729066  .00005332  00000-0  44538-3 0  9991,2 55278  69.9996 166.3665 0002732 259.2573 100.8279 14.99103062 15825,6947.803,96.057,571.566,567.77,0.0
55278.0,STARLINK-5289,PAYLOAD,2023-04-27 05:03:42,14.99120054,0.000294,69.999,165.5241,259.6558,100.427,0.00029372,3.485e-05,0.0,0 STARLINK-5289,1 55278U 23010K   23117.21091140  .00003485  00000-0  29372-3 0  9991,2 55278  69.9990 165.5241 0002940 259.6558 100.4270 14.99120054 15577,6947.751,96.056,571.658,567.573,0.0
55278.0,STARLINK-5289,PAYLOAD,2023-04-27 11:28:02,14.99114295,0.0002722,69.9995,164.8503,260.2342,99.851,0.00047899,5.744e-05,0.0,0 STARLINK-5289,1 55278U 23010K   23117.47780937  .00005744  00000-0  47899-3 0  9992,2 55278  69.9995 164.8503 0002722 260.2342  99.8510 14.99114295 15918,6947.769,96.057,571.525,567.742,0.0
55278.0,STARLINK-5289,PAYLOAD,2023-04-28 06:41:01,14.99147209,0.000309,69.9986,162.829,266.4548,93.6258,0.00018483,2.16e-05,0.0,0 STARLINK-5289,1 55278U 23010K   23118.27848528  .00002160  00000-0  18483-3 0  9998,2 55278  69.9986 162.8290 0003090 266.4548  93.6258 14.99147209 15736,6947.667,96.055,571.679,567.385,0.0
55278.0,STARLINK-5289,PAYLOAD,2023-04-28 11:29:15,14.99148546,0.0002763,69.9997,162.3254,256.1148,103.9704,0.00021679,2.549e-05,0.0,0 STARLINK-5289,1 55278U 23010K   23118.47865408  .00002549  00000-0  21679-3 0  9998,2 55278  69.9997 162.3254 0002763 256.1148 103.9704 14.99148546 16064,6947.663,96.055,571.447,567.608,0.0
55278.0,STARLINK-5289,PAYLOAD,2023-04-29 11:30:30,14.99132311,0.0002564,69.9993,159.7982,258.8357,101.2514,0.00022359,2.631e-05,0.0,0 STARLINK-5289,1 55278U 23010K   23119.47951807  .00002631  00000-0  22359-3 0  9996,2 55278  69.9993 159.7982 0002564 258.8357 101.2514 14.99132311 16218,6947.713,96.056,571.359,567.797,0.0
55278.0,STARLINK-5289,PAYLOAD,2023-04-30 13:07:49,14.9914605,0.0002933,69.9989,157.1026,264.6589,95.4236,-0.00012372,-1.601e-05,0.0,0 STARLINK-5289,1 55278U 23010K   23120.54709527 -.00001601  00000-0 -12372-3 0  9998,2 55278  69.9989 157.1026 0002933 264.6589  95.4236 14.99146050 16070,6947.67,96.055,571.573,567.498,0.0
55278.0,STARLINK-5289,PAYLOAD,2023-05-01 11:32:58,14.99137421,0.0002981,69.9988,154.7443,264.7843,95.2976,-5.8336e-05,-8.04e-06,0.0,0 STARLINK-5289,1 55278U 23010K   23121.48123259 -.00000804  00000-0 -58336-4 0  9999,2 55278  69.9988 154.7443 0002981 264.7843  95.2976 14.99137421 16512,6947.697,96.055,571.633,567.491,0.0
55278.0,STARLINK-5289,PAYLOAD,2023-05-02 11:34:12,14.99139531,0.0003073,69.9985,152.2174,263.4033,96.6776,2.0359e-05,1.54e-06,0.0,0 STARLINK-5289,1 55278U 23010K   23122.48208826  .00000154  00000-0  20359-4 0  9994,2 55278  69.9985 152.2174 0003073 263.4033  96.6776 14.99139531 16363,6947.691,96.055,571.691,567.421,0.0
55278.0,STARLINK-5289,PAYLOAD,2023-05-03 11:35:26,14.99136145,0.0003189,69.9982,149.6902,267.3986,92.6809,9.9852e-06,2.8e-07,0.0,0 STARLINK-5289,1 55278U 23010K   23123.48295100  .00000028  00000-0  99852-5 0  9991,2 55278  69.9982 149.6902 0003189 267.3986  92.6809 14.99136145 16515,6947.701,96.055,571.782,567.35,0.0
55278.0,STARLINK-5289,PAYLOAD,2023-05-04 11:36:40,14.99141522,0.0003259,69.9979,147.1633,267.8094,92.2692,7.4449e-06,-3e-08,0.0,0 STARLINK-5289,1 55278U 23010K   23124.48380678 -.00000003  00000-0  74449-5 0  9996,2 55278  69.9979 147.1633 0003259 267.8094  92.2692 14.99141522 16665,6947.684,96.055,571.814,567.285,0.0
55278.0,STARLINK-5289,PAYLOAD,2023-05-05 11:37:55,14.9913751,0.0003256,69.998,144.6366,267.8156,92.2631,4.9029e-06,-3.4e-07,0.0,0 STARLINK-5289,1 55278U 23010K   23125.48466907 -.00000034  00000-0  49029-5 0  9997,2 55278  69.9980 144.6366 0003256 267.8156  92.2631 14.99137510 16810,6947.697,96.055,571.824,567.3,0.0
55278.0,STARLINK-5289,PAYLOAD,2023-05-05 18:02:15,14.99137845,0.0003254,69.998,143.9628,267.7554,92.3233,-5.6358e-07,-1.01e-06,0.0,0 STARLINK-5289,1 55278U 23010K   23125.75156500 -.00000101  00000-0 -56358-6 0  9992,2 55278  69.9980 143.9628 0003254 267.7554  92.3233 14.99137845 17150,6947.696,96.055,571.822,567.3,0.0
55278.0,STARLINK-5289,PAYLOAD,2023-05-06 06:50:54,14.99141196,0.000324,69.9981,142.6152,267.9763,92.1025,1.0596e-05,3.5e-07,0.0,0 STARLINK-5289,1 55278U 23010K   23126.28535401  .00000035  00000-0  10596-4 0  9998,2 55278  69.9981 142.6152 0003240 267.9763  92.1025 14.99141196 17238,6947.685,96.055,571.802,567.299,0.0
55278.0,STARLINK-5289,PAYLOAD,2023-05-07 02:03:54,14.99139136,0.0003257,69.9981,140.5938,269.7856,90.293,2.1828e-05,1.72e-06,0.0,0 STARLINK-5289,1 55278U 23010K   23127.08604196  .00000172  00000-0  21828-4 0  9997,2 55278  69.9981 140.5938 0003257 269.7856  90.2930 14.99139136 17053,6947.692,96.055,571.82,567.294,0.0
55278.0,STARLINK-5289,PAYLOAD,2023-05-07 10:04:18,14.99139226,0.0003263,69.9982,139.7516,269.5452,90.5333,2.0431e-05,1.55e-06,0.0,0 STARLINK-5289,1 55278U 23010K   23127.41966171  .00000155  00000-0  20431-4 0  9998,2 55278  69.9982 139.7516 0003263 269.5452  90.5333 14.99139226 17402,6947.692,96.055,571.824,567.29,0.0
55278.0,STARLINK-5289,PAYLOAD,2023-05-07 18:04:43,14.99137995,0.000323,69.9983,138.9093,269.08,90.9989,-2.6879e-06,-1.27e-06,0.0,0 STARLINK-5289,1 55278U 23010K   23127.75328298 -.00000127  00000-0 -26879-5 0  9991,2 55278  69.9983 138.9093 0003230 269.0800  90.9989 14.99137995 17457,6947.695,96.055,571.804,567.316,0.0
55278.0,STARLINK-5289,PAYLOAD,2023-05-08 05:17:18,14.99136157,0.0003207,69.9985,137.7302,268.8664,91.2128,-3.9309e-05,-5.73e-06,0.0,0 STARLINK-5289,1 55278U 23010K   23128.22035341 -.00000573  00000-0 -39309-4 0  9994,2 55278  69.9985 137.7302 0003207 268.8664  91.2128 14.99136157 17221,6947.701,96.055,571.794,567.338,0.0
55278.0,STARLINK-5289,PAYLOAD,2023-05-08 10:05:33,14.99136072,0.0003207,69.9985,137.2249,268.831,91.2482,-3.7227e-05,-5.47e-06,0.0,0 STARLINK-5289,1 55278U 23010K   23128.42052564 -.00000547  00000-0 -37227-4 0  9990,2 55278  69.9985 137.2249 0003207 268.8310  91.2482 14.99136072 17559,6947.701,96.055,571.794,567.338,0.0
55278.0,STARLINK-5289,PAYLOAD,2023-05-09 10:06:47,14.99139242,0.0003223,69.9983,134.698,268.3648,91.7143,1.351e-05,7.1e-07,0.0,0 STARLINK-5289,1 55278U 23010K   23129.42138222  .00000071  00000-0  13510-4 0  9996,2 55278  69.9983 134.6980 0003223 268.3648  91.7143 14.99139242 17705,6947.692,96.055,571.796,567.317,0.0
55278.0,STARLINK-5289,PAYLOAD,2023-05-10 10:08:01,14.99138395,0.0003283,69.998,132.1709,268.6492,91.4292,4.5582e-05,4.62e-06,0.0,0 STARLINK-5289,1 55278U 23010K   23130.42224207  .00000462  00000-0  45582-4 0  9995,2 55278  69.9980 132.1709 0003283 268.6492  91.4292 14.99138395 17856,6947.694,96.055,571.84,567.278,0.0
55278.0,STARLINK-5289,PAYLOAD,2023-05-11 10:09:15,14.99142668,0.0003261,69.998,129.6441,268.6931,91.3855,2.094e-05,1.61e-06,0.0,0 STARLINK-5289,1 55278U 23010K   23131.42309928  .00000161  00000-0  20940-4 0  9997,2 55278  69.9980 129.6441 0003261 268.6931  91.3855 14.99142668 18004,6947.681,96.055,571.812,567.28,0.0
55278.0,STARLINK-5289,PAYLOAD,2023-05-11 16:33:35,14.99138403,0.0003225,69.9981,128.9702,269.0309,91.0481,1.5145e-06,-7.5e-07,0.0,0 STARLINK-5289,1 55278U 23010K   23131.68999819 -.00000075  00000-0  15145-5 0  9996,2 55278  69.9981 128.9702 0003225 269.0309  91.0481 14.99138403 18049,6947.694,96.055,571.8,567.318,0.0
55278.0,STARLINK-5289,PAYLOAD,2023-05-12 00:34:00,14.99137448,0.0003183,69.9982,128.128,269.1965,90.883,-2.4164e-05,-3.88e-06,0.0,0 STARLINK-5289,1 55278U 23010K   23132.02361966 -.00000388  00000-0 -24164-4 0  9999,2 55278  69.9982 128.1280 0003183 269.1965  90.8830 14.99137448 17799,6947.697,96.055,571.773,567.351,0.0
55278.0,STARLINK-5289,PAYLOAD,2023-05-12 03:46:10,14.99137129,0.0003189,69.9982,127.7911,269.1164,90.963,-2.6441e-05,-4.16e-06,0.0,0 STARLINK-5289,1 55278U 23010K   23132.15706797 -.00000416  00000-0 -26441-4 0  9990,2 55278  69.9982 127.7911 0003189 269.1164  90.9630 14.99137129 18114,6947.698,96.055,571.779,567.347,0.0
